#aV2006  7 24  0  0   .00000000      96 DD+AD WGS84 FIT  NGA
## 1385  86400.00000000   900.00000000 53940  .0000000000000
+   29     1  2  3  4  5  6  7  8  9 10 11 13 14 15 16 17 18
+         19 20 21 22 23 24 25 26 27 28 29 30  0  0  0  0  0
+          0  0  0  0  0  0  0  0  0  0  0  0  0  0  0  0  0
+          0  0  0  0  0  0  0  0  0  0  0  0  0  0  0  0  0
+          0  0  0  0  0  0  0  0  0  0  0  0  0  0  0  0  0
++         0  0  0  0  0  0  0  0  0  0  0  0  0  0  0  0  0
++         0  0  0  0  0  0  0  0  0  0  0  0  0  0  0  0  0
++         0  0  0  0  0  0  0  0  0  0  0  0  0  0  0  0  0
++         0  0  0  0  0  0  0  0  0  0  0  0  0  0  0  0  0
++         0  0  0  0  0  0  0  0  0  0  0  0  0  0  0  0  0
%c cc cc ccc ccc cccc cccc cccc cccc ccccc ccccc ccccc ccccc
%c cc cc ccc ccc cccc cccc cccc cccc ccccc ccccc ccccc ccccc
%f  0.0000000  0.000000000  0.00000000000  0.000000000000000
%f  0.0000000  0.000000000  0.00000000000  0.000000000000000
%i    0    0    0    0      0      0      0      0         0
%i    0    0    0    0      0      0      0      0         0
/*      NGA, ST. LOUIS,MO.                                  
/*   EPHEMERIS COMPUTED FROM  3 DAYS OF DATA                
/* CCCCCCCCCCCCCCCCCCCCCCCCCCCCCCCCCCCCCCCCCCCCCCCCCCCCCCCCC
/* CCCCCCCCCCCCCCCCCCCCCCCCCCCCCCCCCCCCCCCCCCCCCCCCCCCCCCCCC
*  2006  7 24 20 30   .00000000                                                 
P  1  14909.442794 -21279.714239   5556.677908     67.167423                    
V  1   6038.901967  -3656.924384 -31351.839179       .020818                    
P  2  -8342.237974  13663.564305  20912.610440     17.018677                    
V  2 -26587.728652  -5837.233936  -6931.592199       .038128                    
P  3   9051.853397 -23436.125928  -8282.795194    206.005224                    
V  3   9180.411277  -6275.770506  28682.617809      -.189759                    
P  4 -20395.653279   7177.829671  15614.144276    280.904803                    
V  4 -18965.455395  -5992.156828 -21618.644088       .072154                    
P  5  12805.558933  23129.151921   3155.208425    249.837810                    
V  5  -1343.802279   5247.016136 -30808.197661       .294707                    
P  6  16828.380496   3311.297533  20492.796225    592.911040                    
V  6 -15302.692780  20636.112872   9253.479335       .049564                    
P  7  19432.858679 -16933.483309   6993.766738    539.698686                    
V  7  -2511.045348   8706.503373  29397.294966      -.015647                    
P  8 -25080.984763    716.680258  -9463.913486    -73.546814                    
V  8 -10944.727420  -4433.787408  28709.176563      -.011793                    
P  9  13061.019794  14929.857817 -18354.159572     29.238431                    
V  9 -22013.616501  -2065.216600 -17633.951175       .015344                    
P 10   -692.991578  23636.962103  11680.516961     87.098079                    
V 10  -6829.719265 -13631.920507  27255.314368       .005788                    
P 11 -16000.278965 -13712.884959 -16376.530355    341.141836                    
V 11  20900.981637  -1997.179335 -18569.455390       .020519                    
P 13 -16173.380791  -2437.970148  20821.526925     79.889291                    
V 13  17402.623621 -20107.132388  11159.403967       .030857                    
P 14  20562.003721 -13844.342497  -9387.418794     -9.150686                    
V 14  -6551.483471  10230.804759 -29292.405863       .008033                    
P 15  24846.787346   -671.915173 -10078.396052    650.615445                    
V 15  11438.608449   5437.215817  27828.230212       .068255                    
P 16   4258.975907 -21140.366799  15512.286389     59.176490                    
V 16   8149.956442  17922.758442  22422.036448       .029074                    
P 17 -20715.245634  13070.413908 -10148.116254    100.009053                    
V 17   6482.420120 -11472.837417 -28114.908101      -.004837                    
P 18  16502.590626   9203.684149 -18683.213240   -244.164962                    
V 18   5589.821749  23223.093851  15968.986040      -.012534                    
P 19   1971.867210 -19715.132279 -17548.211113      2.801121                    
V 19  17004.944221 -14893.514348  18584.706095       .025504                    
P 20 -13584.477902 -21411.329663   7856.090205    -23.879952                    
V 20   -841.400840 -10429.648840 -29507.418329       .003668                    
P 21  26351.095534   4992.695883  -1405.994687     43.557539                    
V 21   1151.078528   3256.501476  30927.895490       .021649                    
P 22  14017.423264  -6286.823558 -21511.065219    119.362264                    
V 22   8018.887996  26517.910454  -2526.396875       .033987                    
P 23  -8170.499959 -13137.532736  21472.299658    138.112664                    
V 23  18340.567200 -20488.057978  -5702.627657      -.002682                    
P 24 -24949.603830    897.283894   9694.962917     23.181900                    
V 24 -11005.459504  -5061.386966 -28272.564353       .029390                    
P 25  14571.068190 -12145.117209  19045.577967    207.061239                    
V 25  23095.398760   3529.283969 -15609.947962       .736422                    
P 26  -3209.686808  20148.335139 -17074.729828   -191.251882                    
V 26 -15265.977252  14611.775607  21157.815432      -.134057                    
P 27 -26318.528680  -4562.929730   1682.557509     59.550129                    
V 27   1704.984406  -2368.160066  31429.138111       .017702                    
P 28 -15223.766825   1643.201400 -21436.185243     22.415113                    
V 28  -8476.743132 -26566.251433   3591.934288      -.008542                    
P 29  -6288.638121  21498.173819 -13813.523681    630.993144                    
V 29 -13033.416217  12543.612911  25319.127305       .020982                    
P 30  16847.241084  14263.696741  14569.475043      4.681711                    
V 30   4617.484661  18581.887081 -22960.164351       .011818                    
EOF
